#dP2021  6 11  6  0  0.00000000      96 __u+U ITR00 EXT  IAC
## 2161 453600.00000000   900.00000000 59376 0.2500000000000
+  116   C06C07C08C09C10C11C12C13C14C16C19C20C21C22C23C24C25
+        C26C27C28C29C30C32C33C34C35C36C37C38C39C40C41C42C43
+        C44C45C46E01E02E03E04E05E07E08E09E11E12E13E14E15E18
+        E19E21E24E25E26E27E30E31E33E36G01G02G03G04G05G06G07
+        G08G09G10G12G13G14G15G16G17G18G19G20G21G22G23G24G25
+        G26G27G28G29G30G31G32J01J02J03R01R02R03R04R05R07R08
+        R09R11R12R13R14R15R16R17R18R19R20R21R22R24  0  0  0
++        11 10  8  9 10 10  8 15  8  9  9  9  8  8 10  9  8
++         9  7  9  9 10  8  9  9  9  8 10  8  9 10  8  8  9
++         9  8  9  8  9  8  9  8  8  8  8  9  8  8  7  7  7
++         8  8  7  9  8  8  8  8  8  8  8  8  8  8  8 11  8
++         8  7  8  8  8  7  8  7  8  8  8  8  8 10  8  7  7
++         7  7  8  8  7  7  9 10 10 11  9  9  8  8  8  7  8
++        10  8  9  9  8  9  9 10  7  9 11 10  9  9  0  0  0
%c M  cc GPS ccc cccc cccc cccc cccc ccccc ccccc ccccc ccccc
%c cc cc ccc ccc cccc cccc cccc cccc ccccc ccccc ccccc ccccc
%f  0.0000000  0.000000000  0.00000000000  0.000000000000000
%f  0.0000000  0.000000000  0.00000000000  0.000000000000000
%i    0    0    0    0      0      0      0      0         0
%i    0    0    0    0      0      0      0      0         0
/* IAC                                ULTRA-RAPID PREDICTION
/* S/V CLOCKS ARE ALIGNED TO GNSS TIME                      
/* G:C1WC2W R:C1PC2P E:C1XC5X C:C2IC6I J:C1CC2S             
/* PCV:IGS14_2148 OL/AL:FES2004  NONE     YN ORB:CoN CLK:CoN
*  2021 06 11  9  0  0.00000000
PC06 -25250.636099  30618.532040 -14465.066846    489.850748
PC07 -10097.121909  35121.931376 -20320.109985     85.627813
PC08 -10602.576539  18532.821238  36451.167183   -893.698081
PC09 -12026.747479  30369.959957 -26589.131243    456.651575
PC10   1543.575593  41065.533286  -7984.954350    -31.267195
PC11 -24167.867610  13896.365981    644.956158    393.207811
PC12 -22897.191155   1026.959917 -15878.103174    848.543738
PC13   2350.822501  24475.998675  34394.224385    295.613891
PC14 -13722.434398  13836.722178  19979.041896    913.438291
PC16 -22486.497813  31229.542235 -17347.886614   -891.930295
PC19   9137.922673 -22561.789071 -13637.980341    868.323590
PC20  15554.913512  -5050.461464 -22596.345151   -880.922618
PC21 -12951.615110 -16473.181388  18464.322258   -935.995529
PC22  -2716.802542 -27571.162541   3506.510424   -950.721011
PC23   8396.552877  19649.441813 -17938.137927   -932.226992
PC24 -24258.403250  -2844.235914 -13483.976617   -888.212786
PC25 -10350.952931  12713.586027 -22584.062112   -902.749666
PC26 -23594.717835 -14689.947599   2294.462698    894.319932
PC27  17052.338593   6965.322822  20934.811173    546.471999
PC28  -1411.476042  17813.934479  21430.474777    -63.659270
PC29  18290.514137 -18901.479913  -9332.672699    404.581054
PC30  25127.426803  -8459.386683   8662.807826    470.281863
PC32  13063.581876  16362.606823 -18422.011425   -925.864750
PC33  -9111.921731  22509.399578  13738.611225   -936.717295
PC34 -25215.023673   8947.431158  -7987.650060   -652.972559
PC35   1105.118049 -18028.979678 -21272.174689   -238.563084
PC36  11018.126699 -12230.618828  22560.688053   -727.305104
PC37  22871.848360  15685.575421  -3143.128947   -877.020345
PC38  -8199.998858  22084.492816  34975.083270    154.557298
PC39 -18813.914535  32792.749796 -18797.791342     31.714832
PC40  -5078.628005  39631.851508 -13206.032229    169.883469
PC41   2555.091564  27606.704670  -3120.671181   -947.058029
PC42 -15731.116306   4107.194829  22725.108176   -913.525119
PC43 -18764.422379  18700.137744   8798.707453   -771.293233
PC44 -17222.936864  -6636.660285 -20952.233794    233.794980
PC45  -8593.576929 -19567.156267  17944.549186    464.235085
PC46  23886.121663   2046.866607  14317.786995    229.515960
PE01  19497.036816   2808.632331  22095.198625  -1126.886597
PE02 -19449.081822  -2663.726152 -22151.666195    225.324393
PE03 -20196.927838   8752.987141  19787.574049   -440.736597
PE04  15999.154290 -24512.474657  -4402.780026   -790.040341
PE05 -12592.196687 -12373.422769  23768.375721   -273.843512
PE07  -2272.556771  26050.695633 -13844.909545   -548.528878
PE08 -15701.755558  24741.181160   4132.786573   5987.790864
PE09   2077.301571 -25979.888376  14059.509497   5637.441562
PE11  -3332.471183 -15977.746070 -24707.289698   5865.240763
PE12  18922.780841 -13236.325947 -18511.527752   5165.749266
PE13   2841.386484  15935.994570  24779.837880    417.593549
PE14 -23320.017179   8709.274780 -14296.149057  -1462.263472
PE15 -18875.448896  13250.405215  18560.830336    809.420235
PE18  19175.865398 -21811.450209   -546.501275  -1601.484080
PE19  19806.323886  -6442.444929 -21021.527282    299.452390
PE21  19985.862516  19997.642005   8761.348681   -670.040176
PE24  -8103.955517 -26292.968016  10883.066583   -948.734085
PE25 -19924.275181 -20142.605977  -8567.540328   -536.589968
PE26  23429.776185   9000.636577  15688.621577   1706.283207
PE27   8902.736945  26339.118550 -10159.716846    -51.862532
PE30  -8233.730249  16344.971838 -23273.898680   2872.638072
PE31   7344.241086 -17153.176448  22986.527047   -482.096729
PE33  29430.415158  -2770.206543  -1431.182431   -469.385249
PE36 -22854.515462  -9234.725957 -16397.306744   -219.411060
PG01 -16092.042809 -13557.136348 -16682.051358    661.938309
PG02  -9254.060063  14157.461397  21146.434591   -611.490755
PG03 -12599.251742 -23037.694003   4295.528736   -188.852988
PG04  -7049.204283 -14583.360945  21048.607887   -199.509419
PG05   4134.953677  24495.343638   8987.074938    -44.614606
PG06 -20378.342136   7506.802897  15390.755937     25.604767
PG07 -25415.420267  -7251.914778   4968.620488    175.287395
PG08   1389.925156 -20738.133202 -16366.936126    -24.648418
PG09 -15784.206841  -3777.268822  20971.074856   -350.527468
PG10  15031.833852  -2508.015250 -21658.890698   -140.085204
PG12  10010.193006  24499.252632   2754.614063    -53.442831
PG13 -10608.703951  21520.696722 -11370.827315    143.442633
PG14 -15347.880509   2213.518624 -21575.997456     71.205814
PG15   1755.400083  20914.364909 -16435.979227   -143.169262
PG16   2282.882952 -22668.419744  13013.336333   -339.499628
PG17 -20524.673850  10451.699209 -12801.094434    456.677217
PG18  26086.951308   5030.094989   1280.897267    347.239211
PG19 -20481.983215  15942.942495  -5590.408560     11.897075
PG20   6222.882536  24146.013571   9480.994894    521.277591
PG21  -8946.230566 -14510.123515 -19791.131755    124.278018
PG22  -8842.458305 -24607.275030  -5056.010678   -591.355794
PG23  17513.459641   9436.103791 -17644.494753     98.032851
PG24  11593.962032  14877.539262 -19093.244710    126.731218
PG25  16418.296278  16543.474551  12715.381715    153.828653
PG26   8424.909068 -15683.979081  19568.113061     96.948814
PG27  10851.156353 -22762.582203  -7895.348690   -145.290787
PG28 -12413.361852   8861.670497 -21221.613912    556.513236
PG29  14519.628305   5300.948049  21555.547374   -362.262228
PG30 -25415.488452   1745.257274  -7869.264999   -437.580210
PG31      0.000000      0.000000      0.000000   -122.425980
PG32  19984.770339 -13185.542597 -11196.309952     18.858586
PJ01 -29760.628525  25425.997630  20583.637674   -393.852350
PJ02 -21018.720404  19830.692228 -26170.673022     -0.207817
PJ03 -29419.638296  29775.464769  10815.247323     -7.778665
PR01 -10115.198281  18045.743878  14917.663137     80.705997
PR02  -2203.159714  24932.644864  -5024.846587    481.977126
PR03   6602.654469  15265.469197 -19311.560833     37.489427
PR04  11321.518221  -2929.629172 -22637.148601     90.798856
PR05   9891.256179 -19378.822100 -13283.457253     73.360497
PR07  -6937.627787 -14568.496036  19782.829359    -42.366857
PR08 -11478.040636   2999.034534  22642.755420    -59.449666
PR09  -7959.058099 -17333.291580  16995.634975     -2.636126
PR11 -19555.999207  -6901.073652 -14851.401989    -11.116083
PR12  -8151.855887   7439.832019 -22968.954923    236.263144
PR13   7447.834236  16924.626749 -17583.127984    -56.091044
PR14  19205.412316  16730.635435  -1175.896934     65.223244
PR15  19322.264628   6695.910308  15265.798425    103.320311
PR16   7283.935658  -8438.810793  22924.234996    -16.207928
PR17  13491.040990   5325.611012  20994.413199    431.699065
PR18  23592.889456  -4101.466843   8718.420957     79.651813
PR19  21987.969599 -10565.518020  -7465.561076   -147.311583
PR20   5575.549566 -11957.445154 -21820.648089    -50.679596
PR21 -14474.566630  -4682.009750 -20473.767635   -215.707658
PR22 -23935.602339   4578.936096  -7720.898604   -117.124012
PR24  -4510.798763  12344.441719  21868.508331     46.087439
EOF
